{
  "type": "FeatureCollection",
  "features": [
    {
      "type": "Feature",
      "properties": {"county_name": "Lee", "state": "FL", "svi": 0.62, "evacuation_rate": 0.71, "displacement_days": 18.4},
      "geometry": {"type": "Polygon", "coordinates": [[[-82.25,26.85],[-81.75,26.85],[-81.75,26.45],[-82.25,26.45],[-82.25,26.85]]]}
    },
    {
      "type": "Feature",
      "properties": {"county_name": "Charlotte", "state": "FL", "svi": 0.55, "evacuation_rate": 0.68, "displacement_days": 15.1},
      "geometry": {"type": "Polygon", "coordinates": [[[-82.25,27.05],[-81.85,27.05],[-81.85,26.85],[-82.25,26.85],[-82.25,27.05]]]}
    },
    {
      "type": "Feature",
      "properties": {"county_name": "Sarasota", "state": "FL", "svi": 0.41, "evacuation_rate": 0.59, "displacement_days": 9.7},
      "geometry": {"type": "Polygon", "coordinates": [[[-82.55,27.35],[-82.25,27.35],[-82.25,27.05],[-82.55,27.05],[-82.55,27.35]]]}
    },
    {
      "type": "Feature",
      "properties": {"county_name": "Collier", "state": "FL", "svi": 0.48, "evacuation_rate": 0.63, "displacement_days": 12.3},
      "geometry": {"type": "Polygon", "coordinates": [[[-81.75,26.45],[-81.15,26.45],[-81.15,25.85],[-81.75,25.85],[-81.75,26.45]]]}
    },
    {
      "type": "Feature",
      "properties": {"county_name": "Manatee", "state": "FL", "svi": 0.37, "evacuation_rate": 0.55, "displacement_days": 7.9},
      "geometry": {"type": "Polygon", "coordinates": [[[-82.55,27.55],[-82.15,27.55],[-82.15,27.35],[-82.55,27.35],[-82.55,27.55]]]}
    }
  ]
}
